NORAD_CAT_ID,OBJECT_NAME,OBJECT_TYPE,EPOCH,MEAN_MOTION,ECCENTRICITY,INCLINATION,RA_OF_ASC_NODE,ARG_OF_PERICENTER,MEAN_ANOMALY,BSTAR,MEAN_MOTION_DOT,MEAN_MOTION_DDOT,TLE_LINE0,TLE_LINE1,TLE_LINE2,SEMIMAJOR_AXIS,PERIOD,APOGEE,PERIGEE,DECAYED
52479.0,STARLINK-3878,PAYLOAD,2023-12-11 22:05:08,15.08841031,0.0001344,53.2166,124.7187,86.6174,273.4971,6.2964e-05,7.14e-06,0.0,0 STARLINK-3878,1 52479U 22049AE  23345.92023727  .00000714  00000-0  62964-4 0  9996,2 52479  53.2166 124.7187 0001344  86.6174 273.4971 15.08841031 90021,6917.877,95.437,540.672,538.812,0.0
52479.0,STARLINK-3878,PAYLOAD,2023-12-12 13:59:00,15.08838777,0.0001294,53.2168,121.745,87.4575,272.6565,2.2545e-05,7.1e-07,0.0,0 STARLINK-3878,1 52479U 22049AE  23346.58264089  .00000071  00000-0  22545-4 0  9994,2 52479  53.2168 121.7450 0001294  87.4575 272.6565 15.08838777 90125,6917.884,95.438,540.644,538.854,0.0
52479.0,STARLINK-3878,PAYLOAD,2023-12-12 15:34:23,15.08840016,0.0001302,53.2168,121.4477,87.3895,272.7246,3.302e-05,2.38e-06,0.0,0 STARLINK-3878,1 52479U 22049AE  23346.64887985  .00000238  00000-0  33020-4 0  9992,2 52479  53.2168 121.4477 0001302  87.3895 272.7246 15.08840016 90132,6917.88,95.438,540.646,538.845,0.0
52479.0,STARLINK-3878,PAYLOAD,2023-12-13 12:14:23,15.08843555,0.0001264,53.2168,117.5819,85.5115,274.6022,5.6978e-05,6.19e-06,0.0,0 STARLINK-3878,1 52479U 22049AE  23347.50999584  .00000619  00000-0  56978-4 0  9997,2 52479  53.2168 117.5819 0001264  85.5115 274.6022 15.08843555 89187,6917.87,95.437,540.609,538.86,0.0
52479.0,STARLINK-3878,PAYLOAD,2023-12-13 13:49:46,15.08844014,0.0001276,53.2168,117.2842,84.4719,275.6419,6.0834e-05,6.81e-06,0.0,0 STARLINK-3878,1 52479U 22049AE  23347.57623532  .00000681  00000-0  60834-4 0  9996,2 52479  53.2168 117.2842 0001276  84.4719 275.6419 15.08844014 90275,6917.868,95.437,540.616,538.85,0.0
52479.0,STARLINK-3878,PAYLOAD,2023-12-13 15:25:09,15.0884547,0.0001278,53.2168,116.9868,84.2564,275.8574,7.2515e-05,8.67e-06,0.0,0 STARLINK-3878,1 52479U 22049AE  23347.64247390  .00000867  00000-0  72515-4 0  9993,2 52479  53.2168 116.9868 0001278  84.2564 275.8574 15.08845470 90289,6917.864,95.437,540.613,538.845,0.0
52479.0,STARLINK-3878,PAYLOAD,2023-12-14 12:05:11,15.08837102,0.0001348,53.2168,113.1195,90.7082,269.4065,-2.1913e-05,-6.37e-06,0.0,0 STARLINK-3878,1 52479U 22049AE  23348.50360222 -.00000637  00000-0 -21913-4 0  9992,2 52479  53.2168 113.1195 0001348  90.7082 269.4065 15.08837102 89337,6917.889,95.438,540.687,538.822,0.0
52479.0,STARLINK-3878,PAYLOAD,2023-12-14 13:40:34,15.08836782,0.0001341,53.217,112.8218,90.6959,269.4187,-2.4564e-05,-6.79e-06,0.0,0 STARLINK-3878,1 52479U 22049AE  23348.56984254 -.00000679  00000-0 -24564-4 0  9996,2 52479  53.2170 112.8218 0001341  90.6959 269.4187 15.08836782 90427,6917.89,95.438,540.683,538.828,0.0
52479.0,STARLINK-3878,PAYLOAD,2023-12-14 15:15:57,15.08837388,0.0001342,53.2171,112.5245,87.8141,272.3005,-1.9611e-05,-6e-06,0.0,0 STARLINK-3878,1 52479U 22049AE  23348.63608216 -.00000600  00000-0 -19611-4 0  9996,2 52479  53.2171 112.5245 0001342  87.8141 272.3005 15.08837388 90433,6917.888,95.438,540.682,538.825,0.0
52479.0,STARLINK-3878,PAYLOAD,2023-12-15 13:31:21,15.08836322,0.0001339,53.2171,108.3612,88.7414,271.3732,-9.2185e-05,-1.755e-05,0.0,0 STARLINK-3878,1 52479U 22049AE  23349.56344863 -.00001755  00000-0 -92185-4 0  9993,2 52479  53.2171 108.3612 0001339  88.7414 271.3732 15.08836322 90571,6917.892,95.438,540.683,538.83,0.0
52479.0,STARLINK-3878,PAYLOAD,2023-12-15 15:06:45,15.08833098,0.0001392,53.2173,108.0641,85.6728,274.4423,-3.7195e-05,-8.8e-06,0.0,0 STARLINK-3878,1 52479U 22049AE  23349.62968889 -.00000880  00000-0 -37195-4 0  9998,2 52479  53.2173 108.0641 0001392  85.6728 274.4423 15.08833098 89504,6917.901,95.438,540.729,538.804,0.0
52479.0,STARLINK-3878,PAYLOAD,2023-12-16 11:46:45,15.08838077,0.0001428,53.218,104.2021,90.6299,269.4857,9.9097e-05,1.289e-05,0.0,0 STARLINK-3878,1 52479U 22049AE  23350.49080377  .00001289  00000-0  99097-4 0  9993,2 52479  53.2180 104.2021 0001428  90.6299 269.4857 15.08838077 89632,6917.886,95.438,540.739,538.763,0.0
52479.0,STARLINK-3878,PAYLOAD,2023-12-16 13:22:08,15.08843168,0.0001366,53.2174,103.9025,86.5224,273.5925,8.5474e-05,1.073e-05,0.0,0 STARLINK-3878,1 52479U 22049AE  23350.55704146  .00001073  00000-0  85474-4 0  9992,2 52479  53.2174 103.9025 0001366  86.5224 273.5925 15.08843168 90729,6917.871,95.437,540.681,538.791,0.0
52479.0,STARLINK-3878,PAYLOAD,2023-12-17 11:37:33,15.08834782,0.0001422,53.2172,99.7417,86.9199,273.1956,6.423e-05,7.34e-06,0.0,0 STARLINK-3878,1 52479U 22049AE  23351.48440994  .00000734  00000-0  64230-4 0  9993,2 52479  53.2172  99.7417 0001422  86.9199 273.1956 15.08834782 89788,6917.896,95.438,540.745,538.778,0.0
52479.0,STARLINK-3878,PAYLOAD,2023-12-17 14:48:19,15.08837461,0.0001447,53.2175,99.148,82.6698,277.4459,9.5734e-05,1.236e-05,0.0,0 STARLINK-3878,1 52479U 22049AE  23351.61688797  .00001236  00000-0  95734-4 0  9994,2 52479  53.2175  99.1480 0001447  82.6698 277.4459 15.08837461 90884,6917.888,95.438,540.754,538.752,0.0
52479.0,STARLINK-3878,PAYLOAD,2023-12-18 11:28:19,15.08853769,0.000142,53.2178,95.2812,88.1007,272.0148,1.3863e-05,-6.7e-07,0.0,0 STARLINK-3878,1 52479U 22049AE  23352.47799856 -.00000067  00000-0  13863-4 0  9993,2 52479  53.2178  95.2812 0001420  88.1007 272.0148 15.08853769 89938,6917.838,95.437,540.686,538.721,0.0
52479.0,STARLINK-3878,PAYLOAD,2023-12-18 14:39:05,15.08821859,0.0001718,53.2178,94.6837,78.8129,281.3057,0.00052107,8.01e-05,0.0,0 STARLINK-3878,1 52479U 22049AE  23352.61048088  .00008010  00000-0  52107-3 0  9991,2 52479  53.2178  94.6837 0001718  78.8129 281.3057 15.08821859 91030,6917.936,95.439,540.989,538.612,0.0
52479.0,STARLINK-3878,PAYLOAD,2023-12-19 14:29:52,15.08842689,0.0001695,53.2187,90.2206,70.078,290.0395,2.4482e-05,1.02e-06,0.0,0 STARLINK-3878,1 52479U 22049AE  23353.60408507  .00000102  00000-0  24482-4 0  9997,2 52479  53.2187  90.2206 0001695  70.0780 290.0395 15.08842689 91185,6917.872,95.437,540.91,538.565,0.0
52479.0,STARLINK-3878,PAYLOAD,2023-12-20 11:09:54,15.08837871,0.0001954,53.2197,86.3489,62.002,298.117,-0.00010924,-2.026e-05,0.0,0 STARLINK-3878,1 52479U 22049AE  23354.46521317 -.00002026  00000-0 -10924-3 0  9991,2 52479  53.2197  86.3489 0001954  62.0020 298.1170 15.08837871 90233,6917.887,95.438,541.104,538.4,0.0
52479.0,STARLINK-3878,PAYLOAD,2023-12-20 12:45:17,15.0883792,0.0002151,53.221,86.0563,55.7336,304.386,-6.9416e-05,-1.393e-05,0.0,0 STARLINK-3878,1 52479U 22049AE  23354.53145428 -.00001393  00000-0 -69416-4 0  9991,2 52479  53.2210  86.0563 0002151  55.7336 304.3860 15.08837920 91320,6917.887,95.438,541.24,538.264,0.0
52479.0,STARLINK-3878,PAYLOAD,2023-12-21 11:00:40,15.0884478,0.0001458,53.2182,81.9006,77.4512,282.6643,9.6e-05,1.24e-05,0.0,0 STARLINK-3878,1 52479U 22049AE  23355.45880611  .00001240  00000-0  96000-4 0  9991,2 52479  53.2182  81.9006 0001458  77.4512 282.6643 15.08844780 90384,6917.866,95.437,540.739,538.722,0.0
52479.0,STARLINK-3878,PAYLOAD,2023-12-21 12:36:03,15.08848783,0.00016,53.2187,81.5989,69.6369,290.4795,0.00010889,1.446e-05,0.0,0 STARLINK-3878,1 52479U 22049AE  23355.52504382  .00001446  00000-0  10889-3 0  9995,2 52479  53.2187  81.5989 0001600  69.6369 290.4795 15.08848783 91470,6917.854,95.437,540.825,538.612,0.0
52479.0,STARLINK-3878,PAYLOAD,2023-12-22 10:51:28,15.08840405,0.00015,53.2187,77.4377,97.9979,262.1184,6.9544e-05,8.19e-06,0.0,0 STARLINK-3878,1 52479U 22049AE  23356.45241171  .00000819  00000-0  69544-4 0  9998,2 52479  53.2187  77.4377 0001500  97.9979 262.1184 15.08840405 90532,6917.879,95.438,540.782,538.706,0.0
52479.0,STARLINK-3878,PAYLOAD,2023-12-23 12:17:38,15.08843994,0.0001516,53.2187,72.6832,98.4479,261.6685,-2.8116e-06,-3.33e-06,0.0,0 STARLINK-3878,1 52479U 22049AE  23357.51225322 -.00000333  00000-0 -28116-5 0  9990,2 52479  53.2187  72.6832 0001516  98.4479 261.6685 15.08843994 90696,6917.868,95.437,540.782,538.684,0.0
52479.0,STARLINK-3878,PAYLOAD,2023-12-23 15:28:24,15.08841196,0.0001472,53.2179,72.0788,87.156,272.96,6.8738e-05,8.06e-06,0.0,0 STARLINK-3878,1 52479U 22049AE  23357.64473281  .00000806  00000-0  68738-4 0  9999,2 52479  53.2179  72.0788 0001472  87.1560 272.9600 15.08841196 91794,6917.877,95.437,540.76,538.723,0.0
52479.0,STARLINK-3878,PAYLOAD,2023-12-24 12:08:25,15.08845587,0.0001442,53.2177,68.2135,84.454,275.6617,0.00018821,2.709e-05,0.0,0 STARLINK-3878,1 52479U 22049AE  23358.50584907  .00002709  00000-0  18821-3 0  9994,2 52479  53.2177  68.2135 0001442  84.4540 275.6617 15.08845587 91921,6917.863,95.437,540.726,538.731,0.0
52479.0,STARLINK-3878,PAYLOAD,2023-12-25 04:02:17,15.08842141,0.000159,53.2191,65.2508,100.6987,259.4184,6.4159e-05,7.33e-06,0.0,0 STARLINK-3878,1 52479U 22049AE  23359.16825542  .00000733  00000-0  64159-4 0  9991,2 52479  53.2191  65.2508 0001590 100.6987 259.4184 15.08842141 90941,6917.874,95.437,540.839,538.639,0.0
52479.0,STARLINK-3878,PAYLOAD,2023-12-25 13:34:35,15.0885444,0.0001327,53.2171,63.461,90.1236,269.9908,9.5051e-05,1.226e-05,0.0,0 STARLINK-3878,1 52479U 22049AE  23359.56568522  .00001226  00000-0  95051-4 0  9990,2 52479  53.2171  63.4610 0001327  90.1236 269.9908 15.08854440 92083,6917.836,95.437,540.619,538.783,0.0
52479.0,STARLINK-3878,PAYLOAD,2023-12-26 03:53:04,15.0883186,0.0001384,53.2188,60.7871,111.0539,249.0601,4.8194e-05,4.79e-06,0.0,0 STARLINK-3878,1 52479U 22049AE  23360.16186049  .00000479  00000-0  48194-4 0  9993,2 52479  53.2188  60.7871 0001384 111.0539 249.0601 15.08831860 91092,6917.905,95.438,540.728,538.813,0.0
52479.0,STARLINK-3878,PAYLOAD,2023-12-26 10:14:37,15.08837264,0.0001447,53.218,59.5975,98.2568,261.8588,-3.4487e-05,-8.37e-06,0.0,0 STARLINK-3878,1 52479U 22049AE  23360.42682111 -.00000837  00000-0 -34487-4 0  9993,2 52479  53.2180  59.5975 0001447  98.2568 261.8588 15.08837264 92218,6917.889,95.438,540.755,538.753,0.0
